GLOBALSTAR M084 [+]     
1 38040U 11080A   24102.69097157 -.00000093  00000+0  62721-4 0  9992
2 38040  52.0001 282.1050 0000893 120.3659   5.5591 12.62273208568174
GLOBALSTAR M080 [+]     
1 38041U 11080B   24102.79838932 -.00000094  00000+0  56228-4 0  9994
2 38041  52.0054 283.2351 0001109 118.8853 254.2937 12.62271088568315
GLOBALSTAR M092 [+]     
1 38043U 11080D   24102.94368199 -.00000071  00000+0  18343-3 0  9996
2 38043  52.0098 328.5469 0000614 104.4249 269.7985 12.62277888567494
GLOBALSTAR M086 [+]     
1 38045U 11080F   24102.62696894 -.00000090  00000+0  75214-4 0  9991
2 38045  51.9889 234.0374 0001561  95.4870 278.9344 12.62269332569060
GLOBALSTAR M097 [+]     
1 39072U 13005A   24102.80878198 -.00000081  00000+0  12458-3 0  9990
2 39072  52.0029 147.5944 0000482  75.0842 285.0078 12.62262336516336
